NORAD_CAT_ID,OBJECT_NAME,OBJECT_TYPE,EPOCH,MEAN_MOTION,ECCENTRICITY,INCLINATION,RA_OF_ASC_NODE,ARG_OF_PERICENTER,MEAN_ANOMALY,BSTAR,MEAN_MOTION_DOT,MEAN_MOTION_DDOT,TLE_LINE0,TLE_LINE1,TLE_LINE2,SEMIMAJOR_AXIS,PERIOD,APOGEE,PERIGEE,DECAYED
53562.0,STARLINK-4565,PAYLOAD,2023-07-10 03:54:21,15.08844725,0.0001174,53.2169,104.595,95.7835,264.3291,1.732e-05,-1.2e-07,0.0,0 STARLINK-4565,1 53562U 22101AM  23191.16274950 -.00000012  00000-0  17320-4 0  9998,2 53562  53.2169 104.5950 0001174  95.7835 264.3291 15.08844725 49478,6917.866,95.437,540.543,538.919,0.0
53562.0,STARLINK-4565,PAYLOAD,2023-07-12 00:25:09,15.08831428,0.0001203,53.2167,96.2689,97.1484,262.9645,0.00010671,1.41e-05,0.0,0 STARLINK-4565,1 53562U 22101AM  23193.01747436  .00001410  00000-0  10671-3 0  9991,2 53562  53.2167  96.2689 0001203  97.1484 262.9645 15.08831428 49755,6917.907,95.438,540.604,538.939,0.0
53562.0,STARLINK-4565,PAYLOAD,2023-07-13 00:15:56,15.08840312,0.000104,53.2172,91.809,83.8055,276.3056,-1.1807e-05,-4.76e-06,0.0,0 STARLINK-4565,1 53562U 22101AM  23194.01107258 -.00000476  00000-0 -11807-4 0  9990,2 53562  53.2172  91.8090 0001040  83.8055 276.3056 15.08840312 49907,6917.879,95.438,540.464,539.025,0.0
53562.0,STARLINK-4565,PAYLOAD,2023-07-13 20:55:58,15.08832898,8.85e-05,53.2166,87.9442,82.631,277.4783,-5.2681e-05,-1.126e-05,0.0,0 STARLINK-4565,1 53562U 22101AM  23194.87220233 -.00001126  00000-0 -52681-4 0  9991,2 53562  53.2166  87.9442 0000885  82.6310 277.4783 15.08832898 50039,6917.902,95.438,540.379,539.155,0.0
53562.0,STARLINK-4565,PAYLOAD,2023-07-15 01:32:53,15.08849784,9.78e-05,53.2166,82.5914,83.4394,276.671,0.00013538,1.868e-05,0.0,0 STARLINK-4565,1 53562U 22101AM  23196.06450760  .00001868  00000-0  13538-3 0  9992,2 53562  53.2166  82.5914 0000978  83.4394 276.6710 15.08849784 50211,6917.85,95.437,540.392,539.039,0.0
53562.0,STARLINK-4565,PAYLOAD,2023-07-15 22:12:55,15.08839176,8.89e-05,53.2165,78.7257,89.0476,271.0617,2.9908e-05,1.88e-06,0.0,0 STARLINK-4565,1 53562U 22101AM  23196.92563875  .00000188  00000-0  29908-4 0  9992,2 53562  53.2165  78.7257 0000889  89.0476 271.0617 15.08839176 50344,6917.883,95.438,540.363,539.133,0.0
53562.0,STARLINK-4565,PAYLOAD,2023-07-17 01:14:27,15.08850965,9.13e-05,53.2172,73.6679,95.727,264.3826,-1.848e-06,-3.17e-06,0.0,0 STARLINK-4565,1 53562U 22101AM  23198.05171205 -.00000317  00000-0 -18480-5 0  9990,2 53562  53.2172  73.6679 0000913  95.7270 264.3826 15.08850965 50513,6917.847,95.437,540.343,539.08,0.0
53562.0,STARLINK-4565,PAYLOAD,2023-07-17 18:43:42,15.08842625,9.34e-05,53.2175,70.3974,91.8429,268.267,5.7539e-05,6.28e-06,0.0,0 STARLINK-4565,1 53562U 22101AM  23198.78035410  .00000628  00000-0  57539-4 0  9997,2 53562  53.2175  70.3974 0000934  91.8429 268.2670 15.08842625 50620,6917.872,95.437,540.383,539.091,0.0
53562.0,STARLINK-4565,PAYLOAD,2023-07-18 01:05:14,15.08850652,9.67e-05,53.2173,69.2078,93.4878,266.6225,0.0001256,1.712e-05,0.0,0 STARLINK-4565,1 53562U 22101AM  23199.04530623  .00001712  00000-0  12560-3 0  9992,2 53562  53.2173  69.2078 0000967  93.4878 266.6225 15.08850652 50663,6917.848,95.437,540.382,539.044,0.0
53562.0,STARLINK-4565,PAYLOAD,2023-07-19 00:56:02,15.08836771,0.0001554,53.2174,64.7429,138.0736,222.0376,-3.6513e-05,-8.69e-06,0.0,0 STARLINK-4565,1 53562U 22101AM  23200.03891833 -.00000869  00000-0 -36513-4 0  9996,2 53562  53.2174  64.7429 0001554 138.0736 222.0376 15.08836771 50812,6917.89,95.438,540.83,538.68,0.0
53562.0,STARLINK-4565,PAYLOAD,2023-07-19 18:25:17,15.08830299,0.0001129,53.2187,61.473,126.2085,233.9011,-8.6488e-05,-1.664e-05,0.0,0 STARLINK-4565,1 53562U 22101AM  23200.76756775 -.00001664  00000-0 -86488-4 0  9991,2 53562  53.2187  61.4730 0001129 126.2085 233.9011 15.08830299 50927,6917.91,95.438,540.556,538.994,0.0
53562.0,STARLINK-4565,PAYLOAD,2023-07-20 18:16:04,15.08859696,8.07e-05,53.2172,57.0176,89.4567,270.6518,-0.0001795,-3.145e-05,0.0,0 STARLINK-4565,1 53562U 22101AM  23201.76115987 -.00003145  00000-0 -17950-3 0  9999,2 53562  53.2172  57.0176 0000807  89.4567 270.6518 15.08859696 51072,6917.82,95.436,540.243,539.127,0.0
53562.0,STARLINK-4565,PAYLOAD,2023-07-20 19:51:27,15.08836966,9.17e-05,53.2173,56.7207,83.8219,276.2877,0.00013242,1.82e-05,0.0,0 STARLINK-4565,1 53562U 22101AM  23201.82740227  .00001820  00000-0  13242-3 0  9993,2 53562  53.2173  56.7207 0000917  83.8219 276.2877 15.08836966 51084,6917.89,95.438,540.389,539.12,0.0
53562.0,STARLINK-4565,PAYLOAD,2023-07-24 12:53:03,15.0883469,9.5e-05,53.2177,40.0668,71.8617,288.2478,5.4799e-05,5.84e-06,0.0,0 STARLINK-4565,1 53562U 22101AM  23205.53685109  .00000584  00000-0  54799-4 0  9991,2 53562  53.2177  40.0668 0000950  71.8617 288.2478 15.08834690 52309,6917.897,95.438,540.419,539.104,0.0
53562.0,STARLINK-4565,PAYLOAD,2023-07-25 12:43:50,15.08843255,8.11e-05,53.2171,35.6061,85.6599,274.4485,6.1768e-05,6.96e-06,0.0,0 STARLINK-4565,1 53562U 22101AM  23206.53044496  .00000696  00000-0  61768-4 0  9998,2 53562  53.2171  35.6061 0000811  85.6599 274.4485 15.08843255 52456,6917.87,95.437,540.296,539.174,0.0
53562.0,STARLINK-4565,PAYLOAD,2023-07-26 12:34:37,15.08880653,0.000107,53.218,31.1463,117.4481,242.662,-0.00054551,-8.969e-05,0.0,0 STARLINK-4565,1 53562U 22101AM  23207.52404309 -.00008969  00000-0 -54551-3 0  9995,2 53562  53.2180  31.1463 0001070 117.4481 242.6620 15.08880653 52603,6917.756,95.435,540.361,538.881,0.0
53562.0,STARLINK-4565,PAYLOAD,2023-07-26 14:10:00,15.08843294,9.72e-05,53.2183,30.8486,111.8959,248.2136,-4.343e-05,-9.79e-06,0.0,0 STARLINK-4565,1 53562U 22101AM  23207.59028761 -.00000979  00000-0 -43430-4 0  9994,2 53562  53.2183  30.8486 0000972 111.8959 248.2136 15.08843294 51956,6917.87,95.437,540.408,539.063,0.0
53562.0,STARLINK-4565,PAYLOAD,2023-07-27 12:25:25,15.0883316,8.8e-05,53.2167,26.6869,87.0433,273.0659,-2.5714e-05,-6.97e-06,0.0,0 STARLINK-4565,1 53562U 22101AM  23208.51765355 -.00000697  00000-0 -25714-4 0  9996,2 53562  53.2167  26.6869 0000880  87.0433 273.0659 15.08833160 52751,6917.901,95.438,540.375,539.158,0.0
53562.0,STARLINK-4565,PAYLOAD,2023-07-28 12:16:12,15.08822776,0.0001023,53.2169,22.2258,108.4957,251.6146,0.00014817,2.07e-05,0.0,0 STARLINK-4565,1 53562U 22101AM  23209.51125910  .00002070  00000-0  14817-3 0  9990,2 53562  53.2169  22.2258 0001023 108.4957 251.6146 15.08822776 52907,6917.933,95.439,540.506,539.09,0.0
53562.0,STARLINK-4565,PAYLOAD,2023-07-29 10:31:36,15.08834467,9.28e-05,53.2179,18.0629,101.5891,258.5206,8.1116e-05,1.003e-05,0.0,0 STARLINK-4565,1 53562U 22101AM  23210.43861553  .00001003  00000-0  81116-4 0  9995,2 53562  53.2179  18.0629 0000928 101.5891 258.5206 15.08834467 52382,6917.897,95.438,540.404,539.12,0.0
53562.0,STARLINK-4565,PAYLOAD,2023-07-29 20:03:54,15.08841086,0.0001018,53.2178,16.2787,102.224,257.8866,0.00012779,1.747e-05,0.0,0 STARLINK-4565,1 53562U 22101AM  23210.83605131  .00001747  00000-0  12779-3 0  9990,2 53562  53.2178  16.2787 0001018 102.2240 257.8866 15.08841086 52449,6917.877,95.437,540.446,539.038,0.0
53562.0,STARLINK-4565,PAYLOAD,2023-07-30 10:22:23,15.08838203,0.0001021,53.2175,13.6024,102.7746,257.336,5.9144e-05,6.54e-06,0.0,0 STARLINK-4565,1 53562U 22101AM  23211.43221568  .00000654  00000-0  59144-4 0  9999,2 53562  53.2175  13.6024 0001021 102.7746 257.3360 15.08838203 52532,6917.886,95.438,540.457,539.045,0.0
53562.0,STARLINK-4565,PAYLOAD,2023-07-31 18:10:05,15.08846607,6.68e-05,53.2176,7.6552,63.576,296.5301,6.5541e-05,7.56e-06,0.0,0 STARLINK-4565,1 53562U 22101AM  23212.75701098  .00000756  00000-0  65541-4 0  9997,2 53562  53.2176   7.6552 0000668  63.5760 296.5301 15.08846607 52737,6917.86,95.437,540.187,539.263,0.0
53562.0,STARLINK-4565,PAYLOAD,2023-08-01 16:25:30,15.08839516,8.61e-05,53.2179,3.4932,71.2052,288.9034,6.1081e-05,6.85e-06,0.0,0 STARLINK-4565,1 53562U 22101AM  23213.68437503  .00000685  00000-0  61081-4 0  9993,2 53562  53.2179   3.4932 0000861  71.2052 288.9034 15.08839516 52875,6917.882,95.438,540.342,539.151,0.0
53562.0,STARLINK-4565,PAYLOAD,2023-08-03 09:45:31,15.08837558,9.82e-05,53.2173,355.7605,89.546,270.5645,3.314e-05,2.4e-06,0.0,0 STARLINK-4565,1 53562U 22101AM  23215.40661716  .00000240  00000-0  33140-4 0  9992,2 53562  53.2173 355.7605 0000982  89.5460 270.5645 15.08837558 53137,6917.888,95.438,540.432,539.074,0.0
53562.0,STARLINK-4565,PAYLOAD,2023-08-04 15:57:51,15.0884103,8.75e-05,53.2176,350.1108,92.1348,267.9745,2.9838e-05,1.87e-06,0.0,0 STARLINK-4565,1 53562U 22101AM  23216.66517678  .00000187  00000-0  29838-4 0  9997,2 53562  53.2176 350.1108 0000875  92.1348 267.9745 15.08841030 53325,6917.877,95.437,540.348,539.137,0.0
53562.0,STARLINK-4565,PAYLOAD,2023-08-05 07:51:43,15.08831939,8.82e-05,53.2173,347.138,91.5703,268.5391,2.073e-05,4.2e-07,0.0,0 STARLINK-4565,1 53562U 22101AM  23217.32758476  .00000042  00000-0  20730-4 0  9996,2 53562  53.2173 347.1380 0000882  91.5703 268.5391 15.08831939 53428,6917.905,95.438,540.38,539.16,0.0
53562.0,STARLINK-4565,PAYLOAD,2023-08-05 15:48:38,15.08845855,0.0001014,53.218,345.6519,102.5721,257.5385,0.00012278,1.667e-05,0.0,0 STARLINK-4565,1 53562U 22101AM  23217.65877362  .00001667  00000-0  12278-3 0  9999,2 53562  53.2180 345.6519 0001014 102.5721 257.5385 15.08845855 53472,6917.862,95.437,540.429,539.026,0.0
53562.0,STARLINK-4565,PAYLOAD,2023-08-06 01:20:57,15.08832715,9.69e-05,53.2178,343.8664,100.8475,259.2626,5.46e-05,5.81e-06,0.0,0 STARLINK-4565,1 53562U 22101AM  23218.05622443  .00000581  00000-0  54600-4 0  9992,2 53562  53.2178 343.8664 0000969 100.8475 259.2626 15.08832715 53530,6917.903,95.438,540.438,539.097,0.0
53562.0,STARLINK-4565,PAYLOAD,2023-08-06 09:17:54,15.0881799,9.6e-05,53.2175,342.3802,107.9701,252.1395,-0.00010066,-1.888e-05,0.0,0 STARLINK-4565,1 53562U 22101AM  23218.38744107 -.00001888  00000-0 -10066-3 0  9990,2 53562  53.2175 342.3802 0000960 107.9701 252.1395 15.08817990 53584,6917.948,95.439,540.477,539.149,0.0
